[{"OBJECT_NAME":"STARLINK-31467","OBJECT_ID":"2024-049E","EPOCH":"2026-03-09T12:58:14.447136","MEAN_MOTION":15.27573653,"ECCENTRICITY":0.0001386,"INCLINATION":43.0021,"RA_OF_ASC_NODE":144.3464,"ARG_OF_PERICENTER":274.4787,"MEAN_ANOMALY":85.5906,"EPHEMERIS_TYPE":0,"CLASSIFICATION_TYPE":"U","NORAD_CAT_ID":59235,"ELEMENT_SET_NO":999,"REV_AT_EPOCH":11238,"BSTAR":-1.1233792e-5,"MEAN_MOTION_DOT":-5.71e-6,"MEAN_MOTION_DDOT":0},{"OBJECT_NAME":"KUIPER-00274","OBJECT_ID":"2026-030AE","EPOCH":"2026-03-09T22:00:01.999584","MEAN_MOTION":15.29896925,"ECCENTRICITY":0.00182929,"INCLINATION":51.8831,"RA_OF_ASC_NODE":218.6923,"ARG_OF_PERICENTER":71.2033,"MEAN_ANOMALY":115.2248,"EPHEMERIS_TYPE":0,"CLASSIFICATION_TYPE":"U","NORAD_CAT_ID":67792,"ELEMENT_SET_NO":999,"REV_AT_EPOCH":410,"BSTAR":0.0017989756,"MEAN_MOTION_DOT":0.00053102,"MEAN_MOTION_DDOT":0}]
